{"type": "FeatureCollection", "features": [ {"type": "Feature", "properties": {"norad_id": 66459, "name": "STARLINK-35449", "group": "last-30-days", "lat": -40.900049206553604, "lon": 26.212852097216317, "alt_km": 440.2529819695519, "timestamp": "2025-12-08T17:43:03.631414+00:00", "meta": {"OBJECT_NAME": "STARLINK-35449", "OBJECT_ID": "2025-262D", "EPOCH": "2025-12-08T06:00:02.999808", "MEAN_MOTION": 15.44865919, "ECCENTRICITY": 0.0001412, "INCLINATION": 43.0009, "RA_OF_ASC_NODE": 97.4042, "ARG_OF_PERICENTER": 275.2641, "MEAN_ANOMALY": 174.4735, "EPHEMERIS_TYPE": 0, "CLASSIFICATION_TYPE": "U", "NORAD_CAT_ID": 66459, "ELEMENT_SET_NO": 999, "REV_AT_EPOCH": 491, "BSTAR": -0.047565906, "MEAN_MOTION_DOT": -0.0203441, "MEAN_MOTION_DDOT": 0}, "tle": {"line1": "1 66459U 25262D   25342.25003472 -.02034410  00000+0 -47566-1 0  9990", "line2": "2 66459  43.0009  97.4042 0001412 275.2641 174.4735 15.44865919  4916"}}, "geometry": {"type": "Point", "coordinates": [26.212852097216317, -40.900049206553604]}}, {"type": "Feature", "properties": {"norad_id": 66460, "name": "STARLINK-35424", "group": "last-30-days", "lat": -37.86129532404264, "lon": 38.016296621205846, "alt_km": 436.2056179118972, "timestamp": "2025-12-08T17:43:03.631425+00:00", "meta": {"OBJECT_NAME": "STARLINK-35424", "OBJECT_ID": "2025-262E", "EPOCH": "2025-12-08T06:00:02.999808", "MEAN_MOTION": 15.4618905, "ECCENTRICITY": 0.00014254, "INCLINATION": 42.9999, "RA_OF_ASC_NODE": 97.3868, "ARG_OF_PERICENTER": 274.0287, "MEAN_ANOMALY": 182.9886, "EPHEMERIS_TYPE": 0, "CLASSIFICATION_TYPE": "U", "NORAD_CAT_ID": 66460, "ELEMENT_SET_NO": 999, "REV_AT_EPOCH": 491, "BSTAR": -0.04491724, "MEAN_MOTION_DOT": -0.02013787, "MEAN_MOTION_DDOT": 0}, "tle": {"line1": "1 66460U 25262E   25342.25003472 -.02013787  00000+0 -44917-1 0  9993", "line2": "2 66460  42.9999  97.3868 0001425 274.0287 182.9886 15.46189050  4914"}}, "geometry": {"type": "Point", "coordinates": [38.016296621205846, -37.86129532404264]}}, {"type": "Feature", "properties": {"norad_id": 66461, "name": "STARLINK-35132", "group": "last-30-days", "lat": -34.41470613129257, "lon": 47.211204437862506, "alt_km": 432.2440057413487, "timestamp": "2025-12-08T17:43:03.631435+00:00", "meta": {"OBJECT_NAME": "STARLINK-35132", "OBJECT_ID": "2025-262F", "EPOCH": "2025-12-08T06:00:02.999808", "MEAN_MOTION": 15.47531721, "ECCENTRICITY": 0.0001425, "INCLINATION": 43.0005, "RA_OF_ASC_NODE": 97.3721, "ARG_OF_PERICENTER": 273.8264, "MEAN_ANOMALY": 189.0551, "EPHEMERIS_TYPE": 0, "CLASSIFICATION_TYPE": "U", "NORAD_CAT_ID": 66461, "ELEMENT_SET_NO": 999, "REV_AT_EPOCH": 491, "BSTAR": -0.043483219, "MEAN_MOTION_DOT": -0.02040025, "MEAN_MOTION_DDOT": 0}, "tle": {"line1": "1 66461U 25262F   25342.25003472 -.02040025  00000+0 -43483-1 0  9996", "line2": "2 66461  43.0005  97.3721 0001425 273.8264 189.0551 15.47531721  4919"}}, "geometry": {"type": "Point", "coordinates": [47.211204437862506, -34.41470613129257]}}, {"type": "Feature", "properties": {"norad_id": 66462, "name": "STARLINK-35499", "group": "last-30-days", "lat": -31.080272924027806, "lon": 54.211689414764976, "alt_km": 428.581233534941, "timestamp": "2025-12-08T17:43:03.631448+00:00", "meta": {"OBJECT_NAME": "STARLINK-35499", "OBJECT_ID": "2025-262G", "EPOCH": "2025-12-08T06:00:02.999808", "MEAN_MOTION": 15.48874246, "ECCENTRICITY": 0.00010742, "INCLINATION": 43.0006, "RA_OF_ASC_NODE": 97.3594, "ARG_OF_PERICENTER": 267.2269, "MEAN_ANOMALY": 200.0923, "EPHEMERIS_TYPE": 0, "CLASSIFICATION_TYPE": "U", "NORAD_CAT_ID": 66462, "ELEMENT_SET_NO": 999, "REV_AT_EPOCH": 491, "BSTAR": -0.041938996, "MEAN_MOTION_DOT": -0.02060389, "MEAN_MOTION_DDOT": 0}, "tle": {"line1": "1 66462U 25262G   25342.25003472 -.02060389  00000+0 -41939-1 0  9996", "line2": "2 66462  43.0006  97.3594 0001074 267.2269 200.0923 15.48874246  4911"}}, "geometry": {"type": "Point", "coordinates": [54.211689414764976, -31.080272924027806]}}, {"type": "Feature", "properties": {"norad_id": 66463, "name": "STARLINK-35463", "group": "last-30-days", "lat": -25.918319938107622, "lon": 63.0594298108165, "alt_km": 419.7154217636489, "timestamp": "2025-12-08T17:43:03.631459+00:00", "meta": {"OBJECT_NAME": "STARLINK-35463", "OBJECT_ID": "2025-262H", "EPOCH": "2025-12-08T06:00:02.999808", "MEAN_MOTION": 15.50957279, "ECCENTRICITY": 0.00010814, "INCLINATION": 43.0006, "RA_OF_ASC_NODE": 97.3473, "ARG_OF_PERICENTER": 268.9462, "MEAN_ANOMALY": 203.2951, "EPHEMERIS_TYPE": 0, "CLASSIFICATION_TYPE": "U", "NORAD_CAT_ID": 66463, "ELEMENT_SET_NO": 999, "REV_AT_EPOCH": 491, "BSTAR": -0.023416166, "MEAN_MOTION_DOT": -0.0126241, "MEAN_MOTION_DDOT": 0}, "tle": {"line1": "1 66463U 25262H   25342.25003472 -.01262410  00000+0 -23416-1 0  9995", "line2": "2 66463  43.0006  97.3473 0001081 268.9462 203.2951 15.50957279  4916"}}, "geometry": {"type": "Point", "coordinates": [63.0594298108165, -25.918319938107622]}}, {"type": "Feature", "properties": {"norad_id": 66464, "name": "STARLINK-35435", "group": "last-30-days", "lat": -28.186081083331967, "lon": 59.39815531286026, "alt_km": 424.5307179984093, "timestamp": "2025-12-08T17:43:03.631470+00:00", "meta": {"OBJECT_NAME": "STARLINK-35435", "OBJECT_ID": "2025-262J", "EPOCH": "2025-12-08T06:00:02.999808", "MEAN_MOTION": 15.50222916, "ECCENTRICITY": 0.0001231, "INCLINATION": 43.0005, "RA_OF_ASC_NODE": 97.3521, "ARG_OF_PERICENTER": 263.9334, "MEAN_ANOMALY": 206.3925, "EPHEMERIS_TYPE": 0, "CLASSIFICATION_TYPE": "U", "NORAD_CAT_ID": 66464, "ELEMENT_SET_NO": 999, "REV_AT_EPOCH": 491, "BSTAR": -0.040317234, "MEAN_MOTION_DOT": -0.02076459, "MEAN_MOTION_DDOT": 0}, "tle": {"line1": "1 66464U 25262J   25342.25003472 -.02076459  00000+0 -40317-1 0  9992", "line2": "2 66464  43.0005  97.3521 0001231 263.9334 206.3925 15.50222916  4918"}}, "geometry": {"type": "Point", "coordinates": [59.39815531286026, -28.186081083331967]}}, {"type": "Feature", "properties": {"norad_id": 66465, "name": "STARLINK-35448", "group": "last-30-days", "lat": -23.31444985428145, "lon": 66.93528362055427, "alt_km": 416.8330715535785, "timestamp": "2025-12-08T17:43:03.631496+00:00", "meta": {"OBJECT_NAME": "STARLINK-35448", "OBJECT_ID": "2025-262K", "EPOCH": "2025-12-08T06:00:02.999808", "MEAN_MOTION": 15.50580424, "ECCENTRICITY": 0.00016612, "INCLINATION": 43.0008, "RA_OF_ASC_NODE": 97.3383, "ARG_OF_PERICENTER": 258.4309, "MEAN_ANOMALY": 217.7126, "EPHEMERIS_TYPE": 0, "CLASSIFICATION_TYPE": "U", "NORAD_CAT_ID": 66465, "ELEMENT_SET_NO": 999, "REV_AT_EPOCH": 491, "BSTAR": -0.00054554869, "MEAN_MOTION_DOT": -0.00032217, "MEAN_MOTION_DDOT": 0}, "tle": {"line1": "1 66465U 25262K   25342.25003472 -.00032217  00000+0 -54555-3 0  9996", "line2": "2 66465  43.0008  97.3383 0001661 258.4309 217.7126 15.50580424  4916"}}, "geometry": {"type": "Point", "coordinates": [66.93528362055427, -23.31444985428145]}}, {"type": "Feature", "properties": {"norad_id": 66466, "name": "STARLINK-35388", "group": "last-30-days", "lat": -22.149164285087217, "lon": 68.57512081403733, "alt_km": 416.7442353157294, "timestamp": "2025-12-08T17:43:03.631509+00:00", "meta": {"OBJECT_NAME": "STARLINK-35388", "OBJECT_ID": "2025-262L", "EPOCH": "2025-12-08T06:00:02.999808", "MEAN_MOTION": 15.50565512, "ECCENTRICITY": 0.00016389, "INCLINATION": 43.0006, "RA_OF_ASC_NODE": 97.3324, "ARG_OF_PERICENTER": 260.7531, "MEAN_ANOMALY": 217.3203, "EPHEMERIS_TYPE": 0, "CLASSIFICATION_TYPE": "U", "NORAD_CAT_ID": 66466, "ELEMENT_SET_NO": 999, "REV_AT_EPOCH": 491, "BSTAR": -0.0003117025, "MEAN_MOTION_DOT": -0.00018576, "MEAN_MOTION_DDOT": 0}, "tle": {"line1": "1 66466U 25262L   25342.25003472 -.00018576  00000+0 -31170-3 0  9997", "line2": "2 66466  43.0006  97.3324 0001638 260.7531 217.3203 15.50565512  4910"}}, "geometry": {"type": "Point", "coordinates": [68.57512081403733, -22.149164285087217]}}, {"type": "Feature", "properties": {"norad_id": 66467, "name": "STARLINK-35682", "group": "last-30-days", "lat": -24.44868272866186, "lon": 65.28470211085697, "alt_km": 416.76823544596846, "timestamp": "2025-12-08T17:43:03.631520+00:00", "meta": {"OBJECT_NAME": "STARLINK-35682", "OBJECT_ID": "2025-262M", "EPOCH": "2025-12-08T06:00:02.999808", "MEAN_MOTION": 15.50566465, "ECCENTRICITY": 0.00014662, "INCLINATION": 43.0005, "RA_OF_ASC_NODE": 97.3428, "ARG_OF_PERICENTER": 262.0737, "MEAN_ANOMALY": 212.1529, "EPHEMERIS_TYPE": 0, "CLASSIFICATION_TYPE": "U", "NORAD_CAT_ID": 66467, "ELEMENT_SET_NO": 999, "REV_AT_EPOCH": 491, "BSTAR": 0.00047918022, "MEAN_MOTION_DOT": 0.00027857, "MEAN_MOTION_DDOT": 0}, "tle": {"line1": "1 66467U 25262M   25342.25003472  .00027857  00000+0  47918-3 0  9995", "line2": "2 66467  43.0005  97.3428 0001466 262.0737 212.1529 15.50566465  4919"}}, "geometry": {"type": "Point", "coordinates": [65.28470211085697, -24.44868272866186]}}, {"type": "Feature", "properties": {"norad_id": 66468, "name": "STARLINK-35331", "group": "last-30-days", "lat": -20.96577211188042, "lon": 70.19324474219782, "alt_km": 416.5735046897071, "timestamp": "2025-12-08T17:43:03.631532+00:00", "meta": {"OBJECT_NAME": "STARLINK-35331", "OBJECT_ID": "2025-262N", "EPOCH": "2025-12-08T06:00:02.999808", "MEAN_MOTION": 15.50567284, "ECCENTRICITY": 0.00017723, "INCLINATION": 43.0007, "RA_OF_ASC_NODE": 97.3292, "ARG_OF_PERICENTER": 264.6334, "MEAN_ANOMALY": 215.3574, "EPHEMERIS_TYPE": 0, "CLASSIFICATION_TYPE": "U", "NORAD_CAT_ID": 66468, "ELEMENT_SET_NO": 999, "REV_AT_EPOCH": 491, "BSTAR": -0.00037724064, "MEAN_MOTION_DOT": -0.000224, "MEAN_MOTION_DDOT": 0}, "tle": {"line1": "1 66468U 25262N   25342.25003472 -.00022400  00000+0 -37724-3 0  9991", "line2": "2 66468  43.0007  97.3292 0001772 264.6334 215.3574 15.50567284  4917"}}, "geometry": {"type": "Point", "coordinates": [70.19324474219782, -20.96577211188042]}}]}